1 27386U 02009A   10218.07391488 -.00000054  00000-0 -37038-5 0  3091
2 27386 098.5476 284.4695 0001191 092.9996 267.1338 14.32247434440889